{
    "links": {
        "self": "http://www.neowsapp.com/rest/v1/neo/3439810?api_key=iIulBulltgU6a56xZRHN4H3l9WmuAYTsLGpBGhQ2"
    },
    "id": "3439810",
    "neo_reference_id": "3439810",
    "name": "(2008 WG14)",
    "designation": "2008 WG14",
    "nasa_jpl_url": "http://ssd.jpl.nasa.gov/sbdb.cgi?sstr=3439810",
    "absolute_magnitude_h": 24.8,
    "estimated_diameter": {
        "kilometers": {
            "estimated_diameter_min": 0.0291443905,
            "estimated_diameter_max": 0.0651688382
        },
        "meters": {
            "estimated_diameter_min": 29.1443904535,
            "estimated_diameter_max": 65.1688382168
        },
        "miles": {
            "estimated_diameter_min": 0.018109479,
            "estimated_diameter_max": 0.0404940262
        },
        "feet": {
            "estimated_diameter_min": 95.6180819754,
            "estimated_diameter_max": 213.8085311752
        }
    },
    "is_potentially_hazardous_asteroid": false,
    "close_approach_data": [
        {
            "close_approach_date": "1991-11-30",
            "close_approach_date_full": "1991-Nov-30 10:21",
            "epoch_date_close_approach": 691496460000,
            "relative_velocity": {
                "kilometers_per_second": "4.5263290168",
                "kilometers_per_hour": "16294.7844606324",
                "miles_per_hour": "10124.9453777746"
            },
            "miss_distance": {
                "astronomical": "0.1474229719",
                "lunar": "57.3475360691",
                "kilometers": "22054162.585309853",
                "miles": "13703821.1758798514"
            },
            "orbiting_body": "Venus"
        },
        {
            "close_approach_date": "2008-12-05",
            "close_approach_date_full": "2008-Dec-05 14:54",
            "epoch_date_close_approach": 1228488840000,
            "relative_velocity": {
                "kilometers_per_second": "11.3617036559",
                "kilometers_per_hour": "40902.1331611831",
                "miles_per_hour": "25414.9949078474"
            },
            "miss_distance": {
                "astronomical": "0.0122270398",
                "lunar": "4.7563184822",
                "kilometers": "1829139.110485226",
                "miles": "1136574.3396030788"
            },
            "orbiting_body": "Earth"
        },
        {
            "close_approach_date": "2011-04-20",
            "close_approach_date_full": "2011-Apr-20 20:12",
            "epoch_date_close_approach": 1303330320000,
            "relative_velocity": {
                "kilometers_per_second": "21.474340864",
                "kilometers_per_hour": "77307.6271105501",
                "miles_per_hour": "48035.9530787749"
            },
            "miss_distance": {
                "astronomical": "0.3555873612",
                "lunar": "138.3234835068",
                "kilometers": "53195111.834440644",
                "miles": "33053909.7637591272"
            },
            "orbiting_body": "Earth"
        },
        {
            "close_approach_date": "2015-03-05",
            "close_approach_date_full": "2015-Mar-05 02:31",
            "epoch_date_close_approach": 1425522660000,
            "relative_velocity": {
                "kilometers_per_second": "13.6311517901",
                "kilometers_per_hour": "49072.1464441973",
                "miles_per_hour": "30491.5234391736"
            },
            "miss_distance": {
                "astronomical": "0.0722324599",
                "lunar": "28.0984269011",
                "kilometers": "10805822.145900413",
                "miles": "6714426.5293671794"
            },
            "orbiting_body": "Mars"
        },
        {
            "close_approach_date": "2036-10-27",
            "close_approach_date_full": "2036-Oct-27 16:23",
            "epoch_date_close_approach": 2108737380000,
            "relative_velocity": {
                "kilometers_per_second": "4.4182893881",
                "kilometers_per_hour": "15905.8417970594",
                "miles_per_hour": "9883.2715321784"
            },
            "miss_distance": {
                "astronomical": "0.1438965688",
                "lunar": "55.9757652632",
                "kilometers": "21526620.192788456",
                "miles": "13376021.5334384528"
            },
            "orbiting_body": "Venus"
        }
    ],
    "orbital_data": {
        "orbit_id": "17",
        "orbit_determination_date": "2017-04-06 09:02:07",
        "first_observation_date": "2008-11-21",
        "last_observation_date": "2008-12-07",
        "data_arc_in_days": 16,
        "observations_used": 72,
        "orbit_uncertainty": "7",
        "minimum_orbit_intersection": ".0124716",
        "jupiter_tisserand_invariant": "4.119",
        "epoch_osculation": "2459000.5",
        "eccentricity": ".4871788842263148",
        "semi_major_axis": "1.659618651577329",
        "inclination": "4.465224455550834",
        "ascending_node_longitude": "65.43495369319308",
        "orbital_period": "780.9278070862157",
        "perihelion_distance": ".851087488660705",
        "perihelion_argument": "63.77616821970771",
        "aphelion_distance": "2.468149814493954",
        "perihelion_time": "2458749.317023770545",
        "mean_anomaly": "115.7928692282059",
        "mean_motion": ".4609901155181371",
        "equinox": "J2000",
        "orbit_class": {
            "orbit_class_type": "APO",
            "orbit_class_description": "Near-Earth asteroid orbits which cross the Earth’s orbit similar to that of 1862 Apollo",
            "orbit_class_range": "a (semi-major axis) > 1.0 AU; q (perihelion) < 1.017 AU"
        }
    },
    "is_sentry_object": false
}